STARLINK-4383           
1 53473U 22099J   22241.66667824 -.01224706  00000+0 -13590-1 0  9992
2 53473  97.6560   0.4684 0001794  56.2621  13.5404 15.65594805  2885
STARLINK-4445           
1 53474U 22099K   22241.66667824 -.01207137  00000+0 -13366-1 0  9993
2 53474  97.6557   0.4674 0001841  57.7227  14.6565 15.65609134  2884
STARLINK-4389           
1 53475U 22099L   22241.66667824 -.01229001  00000+0 -13638-1 0  9990
2 53475  97.6559   0.4684 0001749  60.6099   9.8347 15.65604263  2887
STARLINK-4378           
1 53476U 22099M   22241.66667824 -.01223609  00000+0 -13586-1 0  9991
2 53476  97.6561   0.4681 0001617  69.3254 359.1937 15.65579074  2888
STARLINK-4412           
1 53477U 22099N   22241.66667824 -.01200581  00000+0 -13292-1 0  9990
2 53477  97.6559   0.4682 0001853  61.9753   9.7644 15.65596997  2887
STARLINK-4433           
1 53478U 22099P   22241.66667824 -.01229092  00000+0 -13647-1 0  9993
2 53478  97.6559   0.4683 0001723  67.2381   1.9217 15.65590124  2887
STARLINK-4436           
1 53479U 22099Q   22241.66667824 -.01206969  00000+0 -13360-1 0  9994
2 53479  97.6557   0.4679 0001870  56.9451  16.0762 15.65616207  2880
STARLINK-4442           
1 53480U 22099R   22241.66667824 -.01215407  00000+0 -13472-1 0  9997
2 53480  97.6561   0.4682 0001841  57.5250  13.5672 15.65600919  2888
STARLINK-4302           
1 53481U 22099S   22241.66667824 -.01207475  00000+0 -13358-1 0  9997
2 53481  97.6557   0.4681 0001934  51.7184  22.5864 15.65630885  2886
STARLINK-4360           
1 53482U 22099T   22241.66667824 -.01206416  00000+0 -13349-1 0  9992
2 53482  97.6557   0.4677 0001997  47.9263  25.7372 15.65622814  2888
STARLINK-4401           
1 53483U 22099U   22241.66667824 -.01207138  00000+0 -13343-1 0  9999
2 53483  97.6557   0.4680 0001836  58.3572  17.8729 15.65652142  2889
STARLINK-4426           
1 53484U 22099V   22241.66667824 -.01206749  00000+0 -13347-1 0  9991
2 53484  97.6556   0.4678 0001608  95.0992 339.8472 15.65637942  2880
STARLINK-4430           
1 53485U 22099W   22241.66667824 -.01206665  00000+0 -13329-1 0  9999
2 53485  97.6557   0.4682 0001985  48.6970  28.8165 15.65666011  2888
STARLINK-4431           
1 53486U 22099X   22241.66667824 -.01206884  00000+0 -13344-1 0  9990
2 53486  97.6557   0.4680 0001800  60.7579  14.8306 15.65644808  2885
STARLINK-4432           
1 53487U 22099Y   22241.66667824 -.01221488  00000+0 -13497-1 0  9997
2 53487  97.6557   0.4689 0001891  52.4872  26.3026 15.65692200  2885
STARLINK-4421           
1 53488U 22099Z   22241.66667824 -.01218532  00000+0 -13474-1 0  9999
2 53488  97.6558   0.4688 0001791  58.7312  18.1351 15.65668700  2881
STARLINK-4392           
1 53489U 22099AA  22241.66667824 -.01263245  00000+0 -13986-1 0  9999
2 53489  97.6558   0.4694 0001815  56.1717  23.8859 15.65737525  2885
STARLINK-4387           
1 53490U 22099AB  22241.66667824 -.01220142  00000+0 -13485-1 0  9994
2 53490  97.6559   0.4687 0001859  56.9986  21.1501 15.65684215  2886
STARLINK-4450           
1 53491U 22099AC  22241.66667824 -.01215824  00000+0 -13415-1 0  9999
2 53491  97.6560   0.4691 0001831  57.5209  23.8364 15.65716159  2888
STARLINK-4451           
1 53492U 22099AD  22241.66667824 -.01231491  00000+0 -13612-1 0  9997
2 53492  97.6559   0.4689 0001914  54.7439  24.6845 15.65706205  2884
STARLINK-4361           
1 53493U 22099AE  22241.66667824 -.01236720  00000+0 -13655-1 0  9995
2 53493  97.6558   0.4690 0001646  67.5253  15.1044 15.65747535  2881
STARLINK-4340           
1 53494U 22099AF  22241.66667824 -.01233894  00000+0 -13632-1 0  9990
2 53494  97.6557   0.4689 0001923  52.9520  27.7562 15.65723473  2881
STARLINK-4429           
1 53495U 22099AG  22241.66667824 -.01266185  00000+0 -13997-1 0  9994
2 53495  97.6557   0.4697 0001798  61.7321  22.1706 15.65782608  2893
STARLINK-4465           
1 53496U 22099AH  22241.66667824 -.01276475  00000+0 -14132-1 0  9990
2 53496  97.6559   0.4692 0001719  69.6231  12.3527 15.65769173  2884
STARLINK-4453           
1 53497U 22099AJ  22241.66667824 -.01233015  00000+0 -13595-1 0  9996
2 53497  97.6557   0.4694 0001881  54.5131  30.6831 15.65771845  2898
STARLINK-4439           
1 53498U 22099AK  22241.66667824 -.01227513  00000+0 -13542-1 0  9995
2 53498  97.6558   0.4692 0001795  56.2579  27.0181 15.65746288  2887
STARLINK-4454           
1 53499U 22099AL  22241.66667824 -.01229601  00000+0 -13551-1 0  9996
2 53499  97.6558   0.4697 0001818  55.9435  29.8945 15.65776505  2889
STARLINK-4455           
1 53500U 22099AM  22241.66667824 -.01224617  00000+0 -13500-1 0  9995
2 53500  97.6559   0.4692 0001785  58.6420  25.9166 15.65758429  2893
STARLINK-4434           
1 53501U 22099AN  22241.66667824 -.01238139  00000+0 -13640-1 0  9995
2 53501  97.6558   0.4700 0001868  54.4262  33.3300 15.65804423  2881
STARLINK-4435           
1 53502U 22099AP  22241.66667824 -.01231526  00000+0 -13570-1 0  9991
2 53502  97.6557   0.4695 0001783  62.8149  23.6627 15.65785227  2881
